STARLINK-3209           
1 49752U 21115AE  26068.47828917 -.00000897  00000+0 -38247-4 0  9998
2 49752  53.2181 140.0795 0001492  97.8265 262.2897 15.08837439235642
LEMUR-2-MARHISYAM       
1 60536U 24149BW  26068.74036894  .00013075  00000+0  82973-3 0  9990
2 60536  97.6912 151.2662 0003578 107.3271 252.8349 15.09015520 85478
